QIANFAN-182             
1 69399U 26124T   26161.91390017 -.01838893  00000+0 -89202+0 0  9998
2 69399  88.9982   2.7537 0000853  87.5060 272.6228 14.22145649   926
DTC TEST OBJECT A       
1 69472U 26128A   26162.83551789  .00022869  00000+0  33133-3 0  9992
2 69472  54.9940 329.7492 0008129 265.1078  94.9029 15.55802878   390
DTC TEST OBJECT B       
1 69473U 26128B   26162.70678550  .00028232  00000+0  40462-3 0  9998
2 69473  55.0027 330.3416 0008173 268.8601  91.1498 15.55972338   369
TJS-25                  
1 69474U 26129A   26162.48255804  .00007407  00000+0  19774-2 0  9990
2 69474  16.5302  30.5351 7751889 199.9639  91.9387  1.72502163    78
